[{"OBJECT_NAME":"STARLINK-5998","OBJECT_ID":"2023-064W","EPOCH":"2026-03-09T15:26:25.833984","MEAN_MOTION":14.98347142,"ECCENTRICITY":0.0002898,"INCLINATION":70.0004,"RA_OF_ASC_NODE":144.392,"ARG_OF_PERICENTER":270.8108,"MEAN_ANOMALY":89.2719,"EPHEMERIS_TYPE":0,"CLASSIFICATION_TYPE":"U","NORAD_CAT_ID":56468,"ELEMENT_SET_NO":999,"REV_AT_EPOCH":15524,"BSTAR":-0.00030477,"MEAN_MOTION_DOT":-3.729e-5,"MEAN_MOTION_DDOT":0},{"OBJECT_NAME":"LEMUR-2-EMERSONROSE","OBJECT_ID":"2025-052BD","EPOCH":"2026-03-09T22:41:34.308672","MEAN_MOTION":14.98235234,"ECCENTRICITY":0.00026118,"INCLINATION":97.701,"RA_OF_ASC_NODE":323.5746,"ARG_OF_PERICENTER":47.547,"MEAN_ANOMALY":312.5973,"EPHEMERIS_TYPE":0,"CLASSIFICATION_TYPE":"U","NORAD_CAT_ID":63261,"ELEMENT_SET_NO":999,"REV_AT_EPOCH":5387,"BSTAR":0.00054278878,"MEAN_MOTION_DOT":6.392e-5,"MEAN_MOTION_DDOT":0}]
